NORAD_CAT_ID,OBJECT_NAME,OBJECT_TYPE,EPOCH,MEAN_MOTION,ECCENTRICITY,INCLINATION,RA_OF_ASC_NODE,ARG_OF_PERICENTER,MEAN_ANOMALY,BSTAR,MEAN_MOTION_DOT,MEAN_MOTION_DDOT,TLE_LINE0,TLE_LINE1,TLE_LINE2,SEMIMAJOR_AXIS,PERIOD,APOGEE,PERIGEE,DECAYED
53637.0,STARLINK-4396,PAYLOAD,2023-12-10 07:31:28,15.08841799,0.0002325,53.22,307.1167,67.0376,293.0861,1.6606e-05,-2.4e-07,0.0,0 STARLINK-4396,1 53637U 22104BB  23344.31352428 -.00000024  00000-0  16606-4 0  9997,2 53637  53.2200 307.1167 0002325  67.0376 293.0861 15.08841799 71351,6917.875,95.437,541.348,538.131,0.0
53637.0,STARLINK-4396,PAYLOAD,2023-12-11 04:11:29,15.08837822,0.0001953,53.2174,303.2557,76.1931,283.9278,3.0279e-05,1.94e-06,0.0,0 STARLINK-4396,1 53637U 22104BB  23345.17464401  .00000194  00000-0  30279-4 0  9996,2 53637  53.2174 303.2557 0001953  76.1931 283.9278 15.08837822 72505,6917.887,95.438,541.103,538.401,0.0
53637.0,STARLINK-4396,PAYLOAD,2023-12-12 04:02:16,15.08833728,0.0001813,53.2184,298.7912,96.7339,263.3859,4.2821e-05,3.93e-06,0.0,0 STARLINK-4396,1 53637U 22104BB  23346.16824692  .00000393  00000-0  42821-4 0  9995,2 53637  53.2184 298.7912 0001813  96.7339 263.3859 15.08833728 71635,6917.9,95.438,541.019,538.51,0.0
53637.0,STARLINK-4396,PAYLOAD,2023-12-13 03:53:02,15.08845264,0.0001818,53.2186,294.3318,102.4162,257.7034,0.00012328,1.675e-05,0.0,0 STARLINK-4396,1 53637U 22104BB  23347.16183956  .00001675  00000-0  12328-3 0  9999,2 53637  53.2186 294.3318 0001818 102.4162 257.7034 15.08845264 71789,6917.864,95.437,540.987,538.472,0.0
53637.0,STARLINK-4396,PAYLOAD,2023-12-14 03:43:50,15.08836995,0.0001768,53.2187,289.8671,85.0862,275.0332,6.08e-05,6.8e-06,0.0,0 STARLINK-4396,1 53637U 22104BB  23348.15544738  .00000680  00000-0  60800-4 0  9992,2 53637  53.2187 289.8671 0001768  85.0862 275.0332 15.08836995 71930,6917.89,95.438,540.978,538.531,0.0
53637.0,STARLINK-4396,PAYLOAD,2023-12-15 03:34:36,15.0885578,0.0001694,53.2181,285.4103,87.124,272.9946,7.5338e-05,9.12e-06,0.0,0 STARLINK-4396,1 53637U 22104BB  23349.14903543  .00000912  00000-0  75338-4 0  9995,2 53637  53.2181 285.4103 0001694  87.1240 272.9946 15.08855780 72084,6917.832,95.437,540.869,538.525,0.0
53637.0,STARLINK-4396,PAYLOAD,2023-12-16 03:25:25,15.08832084,0.000157,53.217,280.9525,95.4521,264.665,-8.6363e-06,-4.25e-06,0.0,0 STARLINK-4396,1 53637U 22104BB  23350.14265130 -.00000425  00000-0 -86363-5 0  9992,2 53637  53.2170 280.9525 0001570  95.4521 264.6650 15.08832084 72236,6917.905,95.438,540.856,538.683,0.0
53637.0,STARLINK-4396,PAYLOAD,2023-12-17 01:40:48,15.08845909,0.000147,53.2164,276.7971,86.1348,273.9812,9.0299e-05,1.15e-05,0.0,0 STARLINK-4396,1 53637U 22104BB  23351.07000795  .00001150  00000-0  90299-4 0  9995,2 53637  53.2164 276.7971 0001470  86.1348 273.9812 15.08845909 72378,6917.862,95.437,540.744,538.71,0.0
53637.0,STARLINK-4396,PAYLOAD,2023-12-17 22:20:49,15.08848827,0.0001507,53.2172,272.9304,75.9618,284.1542,0.00028003,4.173e-05,0.0,0 STARLINK-4396,1 53637U 22104BB  23351.93112765  .00004173  00000-0  28003-3 0  9992,2 53637  53.2172 272.9304 0001507  75.9618 284.1542 15.08848827 73526,6917.853,95.437,540.761,538.676,0.0
53637.0,STARLINK-4396,PAYLOAD,2023-12-18 01:31:35,15.08854836,0.0001605,53.2174,272.3277,82.8423,277.2751,0.00035387,5.351e-05,0.0,0 STARLINK-4396,1 53637U 22104BB  23352.06360353  .00005351  00000-0  35387-3 0  9997,2 53637  53.2174 272.3277 0001605  82.8423 277.2751 15.08854836 73545,6917.835,95.437,540.81,538.59,0.0
53637.0,STARLINK-4396,PAYLOAD,2023-12-18 22:11:36,15.08837627,0.0001389,53.2171,268.4695,76.598,283.5167,-4.7937e-05,-1.051e-05,0.0,0 STARLINK-4396,1 53637U 22104BB  23352.92473208 -.00001051  00000-0 -47937-4 0  9996,2 53637  53.2171 268.4695 0001389  76.5980 283.5167 15.08837627 73673,6917.888,95.438,540.714,538.792,0.0
53637.0,STARLINK-4396,PAYLOAD,2023-12-19 01:22:22,15.08839005,0.0001572,53.2175,267.8714,102.1245,257.9923,-3.0514e-05,-7.74e-06,0.0,0 STARLINK-4396,1 53637U 22104BB  23353.05721026 -.00000774  00000-0 -30514-4 0  9999,2 53637  53.2175 267.8714 0001572 102.1245 257.9923 15.08839005 72672,6917.883,95.438,540.836,538.661,0.0
53637.0,STARLINK-4396,PAYLOAD,2023-12-20 01:13:10,15.08837635,0.0001688,53.2168,263.4077,112.8879,247.2291,3.4332e-05,2.58e-06,0.0,0 STARLINK-4396,1 53637U 22104BB  23354.05081340  .00000258  00000-0  34332-4 0  9995,2 53637  53.2168 263.4077 0001688 112.8879 247.2291 15.08837635 73844,6917.888,95.438,540.92,538.585,0.0
53637.0,STARLINK-4396,PAYLOAD,2023-12-20 21:53:10,15.08846989,0.0001575,53.2166,259.5438,109.0966,251.0197,0.00028486,4.249e-05,0.0,0 STARLINK-4396,1 53637U 22104BB  23354.91193134  .00004249  00000-0  28486-3 0  9991,2 53637  53.2166 259.5438 0001575 109.0966 251.0197 15.08846989 73973,6917.859,95.437,540.814,538.634,0.0
53637.0,STARLINK-4396,PAYLOAD,2023-12-20 23:28:33,15.08849931,0.0001636,53.217,259.2487,112.295,247.8215,0.000331,4.985e-05,0.0,0 STARLINK-4396,1 53637U 22104BB  23354.97817011  .00004985  00000-0  33100-3 0  9990,2 53637  53.2170 259.2487 0001636 112.2950 247.8215 15.08849931 72968,6917.85,95.437,540.847,538.583,0.0
53637.0,STARLINK-4396,PAYLOAD,2023-12-21 21:43:58,15.08838507,0.0001499,53.2169,255.0859,106.069,254.0467,2.1223e-05,5e-07,0.0,0 STARLINK-4396,1 53637U 22104BB  23355.90553630  .00000050  00000-0  21223-4 0  9991,2 53637  53.2169 255.0859 0001499 106.0690 254.0467 15.08838507 74128,6917.885,95.438,540.787,538.713,0.0
53637.0,STARLINK-4396,PAYLOAD,2023-12-22 00:54:44,15.08840403,0.0001446,53.2156,254.4833,101.0541,259.0614,5.8376e-05,6.41e-06,0.0,0 STARLINK-4396,1 53637U 22104BB  23356.03801505  .00000641  00000-0  58376-4 0  9998,2 53637  53.2156 254.4833 0001446 101.0541 259.0614 15.08840403 73127,6917.879,95.438,540.744,538.744,0.0
53637.0,STARLINK-4396,PAYLOAD,2023-12-22 21:34:45,15.0884691,0.0001492,53.2154,250.617,97.252,262.8642,0.00013447,1.853e-05,0.0,0 STARLINK-4396,1 53637U 22104BB  23356.89913382  .00001853  00000-0  13447-3 0  9994,2 53637  53.2154 250.6170 0001492  97.2520 262.8642 15.08846910 74270,6917.859,95.437,540.756,538.692,0.0
53637.0,STARLINK-4396,PAYLOAD,2023-12-23 00:45:31,15.08848113,0.0001661,53.2156,250.0249,94.5913,265.5269,0.00051975,7.995e-05,0.0,0 STARLINK-4396,1 53637U 22104BB  23357.03161593  .00007995  00000-0  51975-3 0  9991,2 53637  53.2156 250.0249 0001661  94.5913 265.5269 15.08848113 74291,6917.856,95.437,540.87,538.572,0.0
53637.0,STARLINK-4396,PAYLOAD,2023-12-23 16:39:23,15.08842628,0.0001717,53.2157,247.051,92.5737,267.5451,0.00024244,3.573e-05,0.0,0 STARLINK-4396,1 53637U 22104BB  23357.69401915  .00003573  00000-0  24244-3 0  9995,2 53637  53.2157 247.0510 0001717  92.5737 267.5451 15.08842628 73371,6917.872,95.437,540.925,538.55,0.0
53637.0,STARLINK-4396,PAYLOAD,2023-12-23 21:25:32,15.08840271,0.0001725,53.216,246.1584,105.9288,254.1894,0.00018222,2.613e-05,0.0,0 STARLINK-4396,1 53637U 22104BB  23357.89273830  .00002613  00000-0  18222-3 0  9993,2 53637  53.2160 246.1584 0001725 105.9288 254.1894 15.08840271 74427,6917.88,95.438,540.938,538.551,0.0
53637.0,STARLINK-4396,PAYLOAD,2023-12-24 02:11:41,15.08845626,0.0001635,53.2156,245.2652,103.3807,256.7367,0.00036165,5.473e-05,0.0,0 STARLINK-4396,1 53637U 22104BB  23358.09145750  .00005473  00000-0  36165-3 0  9998,2 53637  53.2156 245.2652 0001635 103.3807 256.7367 15.08845626 74452,6917.863,95.437,540.859,538.597,0.0
53637.0,STARLINK-4396,PAYLOAD,2023-12-24 19:40:56,15.08849486,0.000191,53.2157,241.996,119.8684,240.2498,0.00028376,4.232e-05,0.0,0 STARLINK-4396,1 53637U 22104BB  23358.82009371  .00004232  00000-0  28376-3 0  9994,2 53637  53.2157 241.9960 0001910 119.8684 240.2498 15.08849486 73549,6917.851,95.437,541.038,538.395,0.0
53637.0,STARLINK-4396,PAYLOAD,2023-12-24 21:16:19,15.08851681,0.0001926,53.2162,241.6991,113.8247,246.2948,0.00034485,5.206e-05,0.0,0 STARLINK-4396,1 53637U 22104BB  23358.88633361  .00005206  00000-0  34485-3 0  9992,2 53637  53.2162 241.6991 0001926 113.8247 246.2948 15.08851681 74572,6917.845,95.437,541.042,538.377,0.0
53637.0,STARLINK-4396,PAYLOAD,2023-12-25 02:02:28,15.08859812,0.000149,53.2153,240.8065,101.1546,258.9613,0.00061011,9.44e-05,0.0,0 STARLINK-4396,1 53637U 22104BB  23359.08505152  .00009440  00000-0  61011-3 0  9990,2 53637  53.2153 240.8065 0001490 101.1546 258.9613 15.08859812 74600,6917.82,95.436,540.716,538.654,0.0
53637.0,STARLINK-4396,PAYLOAD,2023-12-25 19:31:43,15.08844103,0.0002205,53.215,237.5268,129.5444,230.5743,0.00016666,2.365e-05,0.0,0 STARLINK-4396,1 53637U 22104BB  23359.81369600  .00002365  00000-0  16666-3 0  9992,2 53637  53.2150 237.5268 0002205 129.5444 230.5743 15.08844103 73696,6917.868,95.437,541.258,538.207,0.0
53637.0,STARLINK-4396,PAYLOAD,2023-12-25 21:07:06,15.08840818,0.000148,53.2152,237.228,107.797,252.3183,0.0001474,2.059e-05,0.0,0 STARLINK-4396,1 53637U 22104BB  23359.87993790  .00002059  00000-0  14740-3 0  9992,2 53637  53.2152 237.2280 0001480 107.7970 252.3183 15.08840818 74729,6917.878,95.438,540.767,538.719,0.0
53637.0,STARLINK-4396,PAYLOAD,2023-12-26 01:53:16,15.08840763,0.0001503,53.2157,236.3449,93.3619,266.7545,0.00024307,3.583e-05,0.0,0 STARLINK-4396,1 53637U 22104BB  23360.07865966  .00003583  00000-0  24307-3 0  9992,2 53637  53.2157 236.3449 0001503  93.3619 266.7545 15.08840763 73737,6917.878,95.438,540.783,538.703,0.0
53637.0,STARLINK-4396,PAYLOAD,2023-12-26 20:57:53,15.08844091,0.0001389,53.2153,232.7755,87.7917,272.3234,0.00026639,3.955e-05,0.0,0 STARLINK-4396,1 53637U 22104BB  23360.87354016  .00003955  00000-0  26639-3 0  9992,2 53637  53.2153 232.7755 0001389  87.7917 272.3234 15.08844091 74875,6917.868,95.437,540.694,538.772,0.0
53637.0,STARLINK-4396,PAYLOAD,2023-12-27 19:13:17,15.08846603,0.0001478,53.2146,228.6136,94.7988,265.3173,0.00017249,2.459e-05,0.0,0 STARLINK-4396,1 53637U 22104BB  23361.80089868  .00002459  00000-0  17249-3 0  9991,2 53637  53.2146 228.6136 0001478  94.7988 265.3173 15.08846603 73996,6917.86,95.437,540.748,538.703,0.0
